[{"OBJECT_NAME":"THEA","OBJECT_ID":"2018-099AQ","EPOCH":"2026-03-09T22:33:02.658240","MEAN_MOTION":15.31454284,"ECCENTRICITY":0.00065849,"INCLINATION":97.4542,"RA_OF_ASC_NODE":137.8815,"ARG_OF_PERICENTER":275.4664,"MEAN_ANOMALY":84.5826,"EPHEMERIS_TYPE":0,"CLASSIFICATION_TYPE":"U","NORAD_CAT_ID":43796,"ELEMENT_SET_NO":999,"REV_AT_EPOCH":39748,"BSTAR":0.00074635274,"MEAN_MOTION_DOT":0.00022649,"MEAN_MOTION_DDOT":0},{"OBJECT_NAME":"STARLINK-30784","OBJECT_ID":"2023-166G","EPOCH":"2026-03-09T16:23:16.247616","MEAN_MOTION":15.30178394,"ECCENTRICITY":8.988e-5,"INCLINATION":53.1607,"RA_OF_ASC_NODE":219.9577,"ARG_OF_PERICENTER":89.6522,"MEAN_ANOMALY":270.4582,"EPHEMERIS_TYPE":0,"CLASSIFICATION_TYPE":"U","NORAD_CAT_ID":58156,"ELEMENT_SET_NO":999,"REV_AT_EPOCH":13302,"BSTAR":-3.7174257e-5,"MEAN_MOTION_DOT":-1.459e-5,"MEAN_MOTION_DDOT":0}]
